start=new Date('2023-04-10T00:00:00.000Z').valueOf();
sats=[{"NORAD_CAT_ID":"55463","GP_ID":"229812833","REV_AT_EPOCH":"130","MEAN_MOTION_DDOT":"0.0000000000000","INCLINATION":"43.0004","ECCENTRICITY":"0.00012970","BSTAR":"-0.04154600000000","SEMIMAJOR_AXIS":"6874.371","EPOCH":"2023-04-09T22:00:00.999936","RA_OF_ASC_NODE":"352.6724","DECAY_DATE":null,"OBJECT_NAME":"STARLINK-5677","LAUNCH_DATE":"2023-02-02","MEAN_ELEMENT_THEORY":"SGP4","PERIOD":"94.539","FILE":"3884641","MEAN_MOTION_DOT":"-0.00927714","ELEMENT_SET_NO":"999","TIME_SYSTEM":"UTC","CENTER_NAME":"EARTH","EPHEMERIS_TYPE":"0","TLE_LINE1":"1 55463U 23015Q   23099.91667824 -.00927714  00000-0 -41546-1 0  9993","MEAN_MOTION":"15.23187342","CLASSIFICATION_TYPE":"U","COUNTRY_CODE":"US","TLE_LINE2":"2 55463  43.0004 352.6724 0001297 262.8932  62.2518 15.23187342  1300","ARG_OF_PERICENTER":"262.8932","PERIAPSIS":"495.344","OBJECT_TYPE":"PAYLOAD","SITE":"AFETR","MEAN_ANOMALY":"62.2518","RCS_SIZE":"LARGE","REF_FRAME":"TEME","APOAPSIS":"497.128","OBJECT_ID":"2023-015Q"},{"SITE":"AFETR","ARG_OF_PERICENTER":"260.4133","PERIAPSIS":"492.554","OBJECT_TYPE":"PAYLOAD","REF_FRAME":"TEME","APOAPSIS":"494.348","OBJECT_ID":"2023-015R","MEAN_ANOMALY":"114.2973","RCS_SIZE":"LARGE","EPHEMERIS_TYPE":"0","CENTER_NAME":"EARTH","COUNTRY_CODE":"US","CLASSIFICATION_TYPE":"U","TLE_LINE2":"2 55464  43.0011 352.5533 0001306 260.4133 114.2973 15.24113397  1307","TLE_LINE1":"1 55464U 23015R   23099.91667824 -.00932278  00000-0 -40623-1 0  9990","MEAN_MOTION":"15.24113397","DECAY_DATE":null,"LAUNCH_DATE":"2023-02-02","OBJECT_NAME":"STARLINK-5676","SEMIMAJOR_AXIS":"6871.586","EPOCH":"2023-04-09T22:00:00.999936","RA_OF_ASC_NODE":"352.5533","FILE":"3884641","MEAN_MOTION_DOT":"-0.00932278","ELEMENT_SET_NO":"999","TIME_SYSTEM":"UTC","MEAN_ELEMENT_THEORY":"SGP4","PERIOD":"94.481","INCLINATION":"43.0011","MEAN_MOTION_DDOT":"0.0000000000000","ECCENTRICITY":"0.00013060","NORAD_CAT_ID":"55464","GP_ID":"229812576","REV_AT_EPOCH":"130","BSTAR":"-0.04062300000000"},{"TLE_LINE2":"2 55465  43.0007 352.5984 0001295 270.5284  85.3655 15.23760625  1305","COUNTRY_CODE":"US","CLASSIFICATION_TYPE":"U","MEAN_MOTION":"15.23760625","TLE_LINE1":"1 55465U 23015S   23099.91667824 -.00930601  00000-0 -40976-1 0  9990","EPHEMERIS_TYPE":"0","CENTER_NAME":"EARTH","OBJECT_ID":"2023-015S","APOAPSIS":"495.402","REF_FRAME":"TEME","RCS_SIZE":"LARGE","MEAN_ANOMALY":"85.3655","SITE":"AFETR","OBJECT_TYPE":"PAYLOAD","PERIAPSIS":"493.622","ARG_OF_PERICENTER":"270.5284","BSTAR":"-0.04097600000000","ECCENTRICITY":"0.00012950","INCLINATION":"43.0007","MEAN_MOTION_DDOT":"0.0000000000000","REV_AT_EPOCH":"130","GP_ID":"229811839","NORAD_CAT_ID":"55465","TIME_SYSTEM":"UTC","ELEMENT_SET_NO":"999","MEAN_MOTION_DOT":"-0.00930601","FILE":"3884641","PERIOD":"94.503","MEAN_ELEMENT_THEORY":"SGP4","LAUNCH_DATE":"2023-02-02","OBJECT_NAME":"STARLINK-5674","DECAY_DATE":null,"RA_OF_ASC_NODE":"352.5984","EPOCH":"2023-04-09T22:00:00.999936","SEMIMAJOR_AXIS":"6872.647"},{"SITE":"AFETR","PERIAPSIS":"490.756","OBJECT_TYPE":"PAYLOAD","ARG_OF_PERICENTER":"265.3177","APOAPSIS":"492.524","OBJECT_ID":"2023-015T","REF_FRAME":"TEME","RCS_SIZE":"LARGE","MEAN_ANOMALY":"141.8483","EPHEMERIS_TYPE":"0","CENTER_NAME":"EARTH","TLE_LINE2":"2 55466  43.0013 352.4746 0001287 265.3177 141.8483 15.24716093  1300","COUNTRY_CODE":"US","CLASSIFICATION_TYPE":"U","MEAN_MOTION":"15.24716093","TLE_LINE1":"1 55466U 23015T   23099.91667824 -.00932719  00000-0 -39913-1 0  9992","LAUNCH_DATE":"2023-02-02","OBJECT_NAME":"STARLINK-5628","DECAY_DATE":null,"RA_OF_ASC_NODE":"352.4746","EPOCH":"2023-04-09T22:00:00.999936","SEMIMAJOR_AXIS":"6869.775","TIME_SYSTEM":"UTC","ELEMENT_SET_NO":"999","FILE":"3884641","MEAN_MOTION_DOT":"-0.00932719","PERIOD":"94.444","MEAN_ELEMENT_THEORY":"SGP4","ECCENTRICITY":"0.00012870","MEAN_MOTION_DDOT":"0.0000000000000","INCLINATION":"43.0013","GP_ID":"229812084","REV_AT_EPOCH":"130","NORAD_CAT_ID":"55466","BSTAR":"-0.03991300000000"},{"ECCENTRICITY":"0.00012800","INCLINATION":"43.0000","MEAN_MOTION_DDOT":"0.0000000000000","REV_AT_EPOCH":"130","GP_ID":"229812333","NORAD_CAT_ID":"55467","BSTAR":"-0.04141100000000","OBJECT_NAME":"STARLINK-5679","LAUNCH_DATE":"2023-02-02","DECAY_DATE":null,"RA_OF_ASC_NODE":"352.6481","SEMIMAJOR_AXIS":"6873.820","EPOCH":"2023-04-09T22:00:00.999936","ELEMENT_SET_NO":"999","TIME_SYSTEM":"UTC","MEAN_MOTION_DOT":"-0.00929626","FILE":"3884641","PERIOD":"94.527","MEAN_ELEMENT_THEORY":"SGP4","EPHEMERIS_TYPE":"0","CENTER_NAME":"EARTH","TLE_LINE2":"2 55467  43.0000 352.6481 0001280 269.3861  65.6698 15.23370465  1301","COUNTRY_CODE":"US","CLASSIFICATION_TYPE":"U","MEAN_MOTION":"15.23370465","TLE_LINE1":"1 55467U 23015U   23099.91667824 -.00929626  00000-0 -41411-1 0  9992","SITE":"AFETR","PERIAPSIS":"494.805","OBJECT_TYPE":"PAYLOAD","ARG_OF_PERICENTER":"269.3861","REF_FRAME":"TEME","APOAPSIS":"496.565","OBJECT_ID":"2023-015U","MEAN_ANOMALY":"65.6698","RCS_SIZE":"LARGE"},{"MEAN_ANOMALY":"113.6640","RCS_SIZE":"MEDIUM","REF_FRAME":"TEME","OBJECT_ID":"2023-015V","APOAPSIS":"493.637","PERIAPSIS":"491.851","OBJECT_TYPE":"PAYLOAD","ARG_OF_PERICENTER":"273.1142","SITE":"AFETR","MEAN_MOTION":"15.24348735","TLE_LINE1":"1 55468U 23015V   23099.91667824 -.00931558  00000-0 -40303-1 0  9999","TLE_LINE2":"2 55468  43.0017 352.5249 0001300 273.1142 113.6640 15.24348735  1306","COUNTRY_CODE":"US","CLASSIFICATION_TYPE":"U","CENTER_NAME":"EARTH","EPHEMERIS_TYPE":"0","PERIOD":"94.467","MEAN_ELEMENT_THEORY":"SGP4","ELEMENT_SET_NO":"999","TIME_SYSTEM":"UTC","MEAN_MOTION_DOT":"-0.00931558","FILE":"3884641","RA_OF_ASC_NODE":"352.5249","SEMIMAJOR_AXIS":"6870.879","EPOCH":"2023-04-09T22:00:00.999936","LAUNCH_DATE":"2023-02-02","OBJECT_NAME":"STARLINK-5672","DECAY_DATE":null,"BSTAR":"-0.04030300000000","GP_ID":"229813077","REV_AT_EPOCH":"130","NORAD_CAT_ID":"55468","ECCENTRICITY":"0.00013000","INCLINATION":"43.0017","MEAN_MOTION_DDOT":"0.0000000000000"},{"FILE":"3884641","MEAN_MOTION_DOT":"-0.00930322","TIME_SYSTEM":"UTC","ELEMENT_SET_NO":"999","MEAN_ELEMENT_THEORY":"SGP4","PERIOD":"94.495","DECAY_DATE":null,"OBJECT_NAME":"STARLINK-5681","LAUNCH_DATE":"2023-02-02","EPOCH":"2023-04-09T22:00:00.999936","SEMIMAJOR_AXIS":"6872.243","RA_OF_ASC_NODE":"352.5802","BSTAR":"-0.04079800000000","INCLINATION":"43.0006","MEAN_MOTION_DDOT":"0.0000000000000","ECCENTRICITY":"0.00013110","NORAD_CAT_ID":"55469","REV_AT_EPOCH":"130","GP_ID":"229811339","APOAPSIS":"495.009","OBJECT_ID":"2023-015W","REF_FRAME":"TEME","RCS_SIZE":"LARGE","MEAN_ANOMALY":"99.8925","SITE":"AFETR","ARG_OF_PERICENTER":"263.5272","OBJECT_TYPE":"PAYLOAD","PERIAPSIS":"493.207","CLASSIFICATION_TYPE":"U","COUNTRY_CODE":"US","TLE_LINE2":"2 55469  43.0006 352.5802 0001311 263.5272  99.8925 15.23894877  1302","TLE_LINE1":"1 55469U 23015W   23099.91667824 -.00930322  00000-0 -40798-1 0  9996","MEAN_MOTION":"15.23894877","EPHEMERIS_TYPE":"0","CENTER_NAME":"EARTH"},{"BSTAR":"-0.04016500000000","GP_ID":"229811584","REV_AT_EPOCH":"130","NORAD_CAT_ID":"55470","ECCENTRICITY":"0.00012920","INCLINATION":"43.0012","MEAN_MOTION_DDOT":"0.0000000000000","PERIOD":"94.458","MEAN_ELEMENT_THEORY":"SGP4","ELEMENT_SET_NO":"999","TIME_SYSTEM":"UTC","FILE":"3884641","MEAN_MOTION_DOT":"-0.00932244","RA_OF_ASC_NODE":"352.5056","SEMIMAJOR_AXIS":"6870.457","EPOCH":"2023-04-09T22:00:00.999936","LAUNCH_DATE":"2023-02-02","OBJECT_NAME":"STARLINK-5708","DECAY_DATE":null,"MEAN_MOTION":"15.24489017","TLE_LINE1":"1 55470U 23015X   23099.91667824 -.00932244  00000-0 -40165-1 0  9991","TLE_LINE2":"2 55470  43.0012 352.5056 0001292 274.3255 120.0734 15.24489017  1303","CLASSIFICATION_TYPE":"U","COUNTRY_CODE":"US","CENTER_NAME":"EARTH","EPHEMERIS_TYPE":"0","MEAN_ANOMALY":"120.0734","RCS_SIZE":"LARGE","REF_FRAME":"TEME","APOAPSIS":"493.210","OBJECT_ID":"2023-015X","OBJECT_TYPE":"PAYLOAD","PERIAPSIS":"491.435","ARG_OF_PERICENTER":"274.3255","SITE":"AFETR"},{"BSTAR":"-0.04002600000000","GP_ID":"229812834","REV_AT_EPOCH":"130","NORAD_CAT_ID":"55471","ECCENTRICITY":"0.00012800","MEAN_MOTION_DDOT":"0.0000000000000","INCLINATION":"43.0014","PERIOD":"94.449","MEAN_ELEMENT_THEORY":"SGP4","ELEMENT_SET_NO":"999","TIME_SYSTEM":"UTC","MEAN_MOTION_DOT":"-0.00932930","FILE":"3884641","RA_OF_ASC_NODE":"352.4871","SEMIMAJOR_AXIS":"6870.032","EPOCH":"2023-04-09T22:00:00.999936","LAUNCH_DATE":"2023-02-02","OBJECT_NAME":"STARLINK-5711","DECAY_DATE":null,"MEAN_MOTION":"15.24630472","TLE_LINE1":"1 55471U 23015Y   23099.91667824 -.00932930  00000-0 -40026-1 0  9990","TLE_LINE2":"2 55471  43.0014 352.4871 0001280 271.7530 130.2810 15.24630472  1305","COUNTRY_CODE":"US","CLASSIFICATION_TYPE":"U","CENTER_NAME":"EARTH","EPHEMERIS_TYPE":"0","MEAN_ANOMALY":"130.2810","RCS_SIZE":"LARGE","REF_FRAME":"TEME","OBJECT_ID":"2023-015Y","APOAPSIS":"492.777","PERIAPSIS":"491.018","OBJECT_TYPE":"PAYLOAD","ARG_OF_PERICENTER":"271.7530","SITE":"AFETR"},{"MEAN_MOTION":"15.61011225","TLE_LINE1":"1 55472U 23015Z   23099.91667824 -.00911692  00000-0 -11607-1 0  9996","TLE_LINE2":"2 55472  43.0009 347.3608 0001490 269.4897  66.5951 15.61011225  1301","CLASSIFICATION_TYPE":"U","COUNTRY_CODE":"US","CENTER_NAME":"EARTH","EPHEMERIS_TYPE":"0","MEAN_ANOMALY":"66.5951","RCS_SIZE":"LARGE","REF_FRAME":"TEME","APOAPSIS":"385.745","OBJECT_ID":"2023-015Z","OBJECT_TYPE":"PAYLOAD","PERIAPSIS":"383.729","ARG_OF_PERICENTER":"269.4897","SITE":"AFETR","BSTAR":"-0.01160700000000","REV_AT_EPOCH":"130","GP_ID":"229812577","NORAD_CAT_ID":"55472","ECCENTRICITY":"0.00014900","MEAN_MOTION_DDOT":"0.0000000000000","INCLINATION":"43.0009","PERIOD":"92.248","MEAN_ELEMENT_THEORY":"SGP4","ELEMENT_SET_NO":"999","TIME_SYSTEM":"UTC","MEAN_MOTION_DOT":"-0.00911692","FILE":"3884641","RA_OF_ASC_NODE":"347.3608","SEMIMAJOR_AXIS":"6762.872","EPOCH":"2023-04-09T22:00:00.999936","OBJECT_NAME":"STARLINK-5705","LAUNCH_DATE":"2023-02-02","DECAY_DATE":null}];
